{
    "links": {
        "self": "http://www.neowsapp.com/rest/v1/neo/3102705?api_key=iIulBulltgU6a56xZRHN4H3l9WmuAYTsLGpBGhQ2"
    },
    "id": "3102705",
    "neo_reference_id": "3102705",
    "name": "(2001 YD1)",
    "designation": "2001 YD1",
    "nasa_jpl_url": "http://ssd.jpl.nasa.gov/sbdb.cgi?sstr=3102705",
    "absolute_magnitude_h": 24.4,
    "estimated_diameter": {
        "kilometers": {
            "estimated_diameter_min": 0.0350392641,
            "estimated_diameter_max": 0.0783501764
        },
        "meters": {
            "estimated_diameter_min": 35.0392641108,
            "estimated_diameter_max": 78.3501764334
        },
        "miles": {
            "estimated_diameter_min": 0.0217723826,
            "estimated_diameter_max": 0.0486845275
        },
        "feet": {
            "estimated_diameter_min": 114.9582192654,
            "estimated_diameter_max": 257.0543928497
        }
    },
    "is_potentially_hazardous_asteroid": false,
    "close_approach_data": [
        {
            "close_approach_date": "2001-12-11",
            "close_approach_date_full": "2001-Dec-11 01:15",
            "epoch_date_close_approach": 1008033300000,
            "relative_velocity": {
                "kilometers_per_second": "13.0091396178",
                "kilometers_per_hour": "46832.9026239036",
                "miles_per_hour": "29100.1444109472"
            },
            "miss_distance": {
                "astronomical": "0.01782375",
                "lunar": "6.93343875",
                "kilometers": "2666395.0354125",
                "miles": "1656821.0471925"
            },
            "orbiting_body": "Earth"
        },
        {
            "close_approach_date": "2003-06-28",
            "close_approach_date_full": "2003-Jun-28 20:56",
            "epoch_date_close_approach": 1056833760000,
            "relative_velocity": {
                "kilometers_per_second": "24.0247605955",
                "kilometers_per_hour": "86489.1381436754",
                "miles_per_hour": "53740.9869759966"
            },
            "miss_distance": {
                "astronomical": "0.3984942988",
                "lunar": "155.0142822332",
                "kilometers": "59613898.307623556",
                "miles": "37042358.7313588328"
            },
            "orbiting_body": "Earth"
        },
        {
            "close_approach_date": "2055-12-16",
            "close_approach_date_full": "2055-Dec-16 10:46",
            "epoch_date_close_approach": 2712566760000,
            "relative_velocity": {
                "kilometers_per_second": "9.3977980522",
                "kilometers_per_hour": "33832.0729880988",
                "miles_per_hour": "21021.9344630773"
            },
            "miss_distance": {
                "astronomical": "0.0627048351",
                "lunar": "24.3921808539",
                "kilometers": "9380509.769661237",
                "miles": "5828778.4868175906"
            },
            "orbiting_body": "Mars"
        }
    ],
    "orbital_data": {
        "orbit_id": "9",
        "orbit_determination_date": "2017-04-06 09:15:41",
        "first_observation_date": "2001-12-17",
        "last_observation_date": "2001-12-24",
        "data_arc_in_days": 7,
        "observations_used": 33,
        "orbit_uncertainty": "8",
        "minimum_orbit_intersection": ".0165037",
        "jupiter_tisserand_invariant": "4.436",
        "epoch_osculation": "2452263.5",
        "eccentricity": ".4645463611123201",
        "semi_major_axis": "1.488275621233632",
        "inclination": "7.035611686036747",
        "ascending_node_longitude": "85.94447467793333",
        "orbital_period": "663.1678727785095",
        "perihelion_distance": ".7969025970573703",
        "perihelion_argument": "285.2009606757691",
        "aphelion_distance": "2.179648645409893",
        "perihelion_time": "2452207.603220159339",
        "mean_anomaly": "30.34350964308363",
        "mean_motion": ".5428489750139568",
        "equinox": "J2000",
        "orbit_class": {
            "orbit_class_type": "APO",
            "orbit_class_description": "Near-Earth asteroid orbits which cross the Earth’s orbit similar to that of 1862 Apollo",
            "orbit_class_range": "a (semi-major axis) > 1.0 AU; q (perihelion) < 1.017 AU"
        }
    },
    "is_sentry_object": false
}